{
    "links": {
        "self": "http://www.neowsapp.com/rest/v1/neo/3781732?api_key=iIulBulltgU6a56xZRHN4H3l9WmuAYTsLGpBGhQ2"
    },
    "id": "3781732",
    "neo_reference_id": "3781732",
    "name": "(2017 SM12)",
    "designation": "2017 SM12",
    "nasa_jpl_url": "http://ssd.jpl.nasa.gov/sbdb.cgi?sstr=3781732",
    "absolute_magnitude_h": 23.2,
    "estimated_diameter": {
        "kilometers": {
            "estimated_diameter_min": 0.0608912622,
            "estimated_diameter_max": 0.1361570015
        },
        "meters": {
            "estimated_diameter_min": 60.8912622106,
            "estimated_diameter_max": 136.1570015386
        },
        "miles": {
            "estimated_diameter_min": 0.0378360645,
            "estimated_diameter_max": 0.0846040122
        },
        "feet": {
            "estimated_diameter_min": 199.7744887109,
            "estimated_diameter_max": 446.7093369279
        }
    },
    "is_potentially_hazardous_asteroid": false,
    "close_approach_data": [
        {
            "close_approach_date": "2017-10-03",
            "close_approach_date_full": "2017-Oct-03 11:07",
            "epoch_date_close_approach": 1507028820000,
            "relative_velocity": {
                "kilometers_per_second": "8.8356135128",
                "kilometers_per_hour": "31808.2086462307",
                "miles_per_hour": "19764.383866876"
            },
            "miss_distance": {
                "astronomical": "0.0821958267",
                "lunar": "31.9741765863",
                "kilometers": "12296320.597209129",
                "miles": "7640579.3207348202"
            },
            "orbiting_body": "Earth"
        },
        {
            "close_approach_date": "2103-09-03",
            "close_approach_date_full": "2103-Sep-03 15:28",
            "epoch_date_close_approach": 4218276480000,
            "relative_velocity": {
                "kilometers_per_second": "19.2134227129",
                "kilometers_per_hour": "69168.3217665534",
                "miles_per_hour": "42978.5052665565"
            },
            "miss_distance": {
                "astronomical": "0.3700021329",
                "lunar": "143.9308296981",
                "kilometers": "55351530.977296923",
                "miles": "34393846.4854386174"
            },
            "orbiting_body": "Earth"
        },
        {
            "close_approach_date": "2107-12-02",
            "close_approach_date_full": "2107-Dec-02 13:42",
            "epoch_date_close_approach": 4352276520000,
            "relative_velocity": {
                "kilometers_per_second": "12.9225348365",
                "kilometers_per_hour": "46521.1254112337",
                "miles_per_hour": "28906.4181756635"
            },
            "miss_distance": {
                "astronomical": "0.2224081444",
                "lunar": "86.5167681716",
                "kilometers": "33271784.672892428",
                "miles": "20674128.3236663864"
            },
            "orbiting_body": "Earth"
        }
    ],
    "orbital_data": {
        "orbit_id": "7",
        "orbit_determination_date": "2018-02-10 07:09:10",
        "first_observation_date": "2017-09-14",
        "last_observation_date": "2017-11-20",
        "data_arc_in_days": 67,
        "observations_used": 76,
        "orbit_uncertainty": "7",
        "minimum_orbit_intersection": ".0832551",
        "jupiter_tisserand_invariant": "3.142",
        "epoch_osculation": "2459000.5",
        "eccentricity": ".5988179839361769",
        "semi_major_axis": "2.567176193321655",
        "inclination": "7.763833915751572",
        "ascending_node_longitude": "344.5516872403012",
        "orbital_period": "1502.387431934156",
        "perihelion_distance": "1.029904920827832",
        "perihelion_argument": "47.16589137331756",
        "aphelion_distance": "4.104447465815477",
        "perihelion_time": "2459549.882602658489",
        "mean_anomaly": "228.3577000491548",
        "mean_motion": ".2396186179063947",
        "equinox": "J2000",
        "orbit_class": {
            "orbit_class_type": "AMO",
            "orbit_class_description": "Near-Earth asteroid orbits similar to that of 1221 Amor",
            "orbit_class_range": "1.017 AU < q (perihelion) < 1.3 AU"
        }
    },
    "is_sentry_object": false
}